start=new Date('2021-11-13T00:00:00.000Z').valueOf();
sats=[{"DECAY_DATE":null,"CLASSIFICATION_TYPE":"U","MEAN_ANOMALY":"280.3279","NORAD_CAT_ID":"47768","FILE":"3213639","ARG_OF_PERICENTER":"79.7869","OBJECT_ID":"2021-017AY","TLE_LINE1":"1 47768U 21017AY  21316.70547830 -.00000672  00000-0 -26240-4 0  9995","APOAPSIS":"548.195","RA_OF_ASC_NODE":"110.4777","REF_FRAME":"TEME","MEAN_ELEMENT_THEORY":"SGP4","MEAN_MOTION_DOT":"-0.00000672","COUNTRY_CODE":"US","REV_AT_EPOCH":"3970","TIME_SYSTEM":"UTC","CENTER_NAME":"EARTH","MEAN_MOTION":"15.06398074","TLE_LINE2":"2 47768  53.0558 110.4777 0001408  79.7869 280.3279 15.06398074 39709","OBJECT_NAME":"STARLINK-2189","BSTAR":"-0.00002624000000","GP_ID":"189645375","PERIOD":"95.592","LAUNCH_DATE":"2021-03-04","SITE":"AFETR","OBJECT_TYPE":"PAYLOAD","ELEMENT_SET_NO":"999","INCLINATION":"53.0558","SEMIMAJOR_AXIS":"6925.354","RCS_SIZE":"LARGE","MEAN_MOTION_DDOT":"0.0000000000000","PERIAPSIS":"546.244","EPHEMERIS_TYPE":"0","EPOCH":"2021-11-12T16:55:53.325120","ECCENTRICITY":"0.00014080"},{"SITE":"AFETR","PERIOD":"95.592","GP_ID":"189621697","LAUNCH_DATE":"2021-03-04","BSTAR":"-0.00001357900000","OBJECT_NAME":"STARLINK-2192","ECCENTRICITY":"0.00013380","EPOCH":"2021-11-12T19:38:27.904128","EPHEMERIS_TYPE":"0","PERIAPSIS":"546.303","MEAN_MOTION_DDOT":"0.0000000000000","RCS_SIZE":"LARGE","SEMIMAJOR_AXIS":"6925.365","INCLINATION":"53.0546","OBJECT_TYPE":"PAYLOAD","ELEMENT_SET_NO":"999","TLE_LINE1":"1 47769U 21017AZ  21316.81837852 -.00000484  00000-0 -13579-4 0  9996","ARG_OF_PERICENTER":"78.6260","OBJECT_ID":"2021-017AZ","FILE":"3213527","NORAD_CAT_ID":"47769","MEAN_ANOMALY":"281.4879","CLASSIFICATION_TYPE":"U","DECAY_DATE":null,"MEAN_MOTION":"15.06394777","TLE_LINE2":"2 47769  53.0546  74.9539 0001338  78.6260 281.4879 15.06394777 39559","CENTER_NAME":"EARTH","TIME_SYSTEM":"UTC","REV_AT_EPOCH":"3955","COUNTRY_CODE":"US","MEAN_MOTION_DOT":"-0.00000484","MEAN_ELEMENT_THEORY":"SGP4","REF_FRAME":"TEME","RA_OF_ASC_NODE":"74.9539","APOAPSIS":"548.156"},{"INCLINATION":"53.0554","SEMIMAJOR_AXIS":"6925.353","ELEMENT_SET_NO":"999","OBJECT_TYPE":"PAYLOAD","ECCENTRICITY":"0.00011680","EPHEMERIS_TYPE":"0","EPOCH":"2021-11-12T21:18:37.693728","PERIAPSIS":"546.409","RCS_SIZE":"LARGE","MEAN_MOTION_DDOT":"0.0000000000000","OBJECT_NAME":"STARLINK-2193","SITE":"AFETR","GP_ID":"189646360","PERIOD":"95.592","LAUNCH_DATE":"2021-03-04","BSTAR":"-0.00000279770000","MEAN_ELEMENT_THEORY":"SGP4","REF_FRAME":"TEME","RA_OF_ASC_NODE":"89.6336","APOAPSIS":"548.027","CENTER_NAME":"EARTH","TLE_LINE2":"2 47770  53.0554  89.6336 0001168  79.8886 280.2235 15.06398642 40017","MEAN_MOTION":"15.06398642","TIME_SYSTEM":"UTC","REV_AT_EPOCH":"4001","MEAN_MOTION_DOT":"-0.00000323","COUNTRY_CODE":"US","CLASSIFICATION_TYPE":"U","DECAY_DATE":null,"ARG_OF_PERICENTER":"79.8886","OBJECT_ID":"2021-017BA","TLE_LINE1":"1 47770U 21017BA  21316.88793627 -.00000323  00000-0 -27977-5 0  9996","FILE":"3213639","NORAD_CAT_ID":"47770","MEAN_ANOMALY":"280.2235"},{"MEAN_MOTION":"15.06395027","TLE_LINE2":"2 47771  53.0559  90.7552 0001344  83.4329 276.6813 15.06395027 39984","CENTER_NAME":"EARTH","TIME_SYSTEM":"UTC","REV_AT_EPOCH":"3998","COUNTRY_CODE":"US","MEAN_MOTION_DOT":"-0.00000828","MEAN_ELEMENT_THEORY":"SGP4","RA_OF_ASC_NODE":"90.7552","REF_FRAME":"TEME","APOAPSIS":"548.160","TLE_LINE1":"1 47771U 21017BB  21316.63822605 -.00000828  00000-0 -36738-4 0  9993","ARG_OF_PERICENTER":"83.4329","OBJECT_ID":"2021-017BB","FILE":"3213639","MEAN_ANOMALY":"276.6813","NORAD_CAT_ID":"47771","CLASSIFICATION_TYPE":"U","DECAY_DATE":null,"ECCENTRICITY":"0.00013440","EPOCH":"2021-11-12T15:19:02.730720","EPHEMERIS_TYPE":"0","PERIAPSIS":"546.298","MEAN_MOTION_DDOT":"0.0000000000000","RCS_SIZE":"LARGE","INCLINATION":"53.0559","SEMIMAJOR_AXIS":"6925.364","ELEMENT_SET_NO":"999","OBJECT_TYPE":"PAYLOAD","SITE":"AFETR","LAUNCH_DATE":"2021-03-04","GP_ID":"189645628","PERIOD":"95.592","BSTAR":"-0.00003673800000","OBJECT_NAME":"STARLINK-2194"},{"BSTAR":"0.00006810400000","SITE":"AFETR","PERIOD":"95.592","GP_ID":"189645876","LAUNCH_DATE":"2021-03-04","OBJECT_NAME":"STARLINK-2195","PERIAPSIS":"545.960","RCS_SIZE":"LARGE","MEAN_MOTION_DDOT":"0.0000000000000","ECCENTRICITY":"0.00018130","EPHEMERIS_TYPE":"0","EPOCH":"2021-11-12T19:50:25.458720","ELEMENT_SET_NO":"999","OBJECT_TYPE":"PAYLOAD","INCLINATION":"53.0547","SEMIMAJOR_AXIS":"6925.350","FILE":"3213639","NORAD_CAT_ID":"47772","MEAN_ANOMALY":"272.8337","OBJECT_ID":"2021-017BC","ARG_OF_PERICENTER":"87.2859","TLE_LINE1":"1 47772U 21017BC  21316.82668355  .00000733  00000-0  68104-4 0  9990","CLASSIFICATION_TYPE":"U","DECAY_DATE":null,"REV_AT_EPOCH":"3977","MEAN_MOTION_DOT":"0.00000733","COUNTRY_CODE":"US","CENTER_NAME":"EARTH","MEAN_MOTION":"15.06399393","TLE_LINE2":"2 47772  53.0547 104.9094 0001813  87.2859 272.8337 15.06399393 39778","TIME_SYSTEM":"UTC","RA_OF_ASC_NODE":"104.9094","REF_FRAME":"TEME","APOAPSIS":"548.471","MEAN_ELEMENT_THEORY":"SGP4"},{"TIME_SYSTEM":"UTC","TLE_LINE2":"2 47773  53.0548 104.9317 0001467  85.6915 274.4241 15.06401029 39769","MEAN_MOTION":"15.06401029","CENTER_NAME":"EARTH","COUNTRY_CODE":"US","MEAN_MOTION_DOT":"-0.00000961","REV_AT_EPOCH":"3976","MEAN_ELEMENT_THEORY":"SGP4","APOAPSIS":"548.226","REF_FRAME":"TEME","RA_OF_ASC_NODE":"104.9317","TLE_LINE1":"1 47773U 21017BD  21316.82298852 -.00000961  00000-0 -45608-4 0  9991","ARG_OF_PERICENTER":"85.6915","OBJECT_ID":"2021-017BD","MEAN_ANOMALY":"274.4241","NORAD_CAT_ID":"47773","FILE":"3213639","DECAY_DATE":null,"CLASSIFICATION_TYPE":"U","EPOCH":"2021-11-12T19:45:06.208128","EPHEMERIS_TYPE":"0","ECCENTRICITY":"0.00014670","MEAN_MOTION_DDOT":"0.0000000000000","RCS_SIZE":"LARGE","PERIAPSIS":"546.194","SEMIMAJOR_AXIS":"6925.345","INCLINATION":"53.0548","OBJECT_TYPE":"PAYLOAD","ELEMENT_SET_NO":"999","PERIOD":"95.592","GP_ID":"189646616","LAUNCH_DATE":"2021-03-04","SITE":"AFETR","BSTAR":"-0.00004560800000","OBJECT_NAME":"STARLINK-2196"},{"OBJECT_TYPE":"PAYLOAD","ELEMENT_SET_NO":"999","SEMIMAJOR_AXIS":"6925.376","INCLINATION":"53.0551","RCS_SIZE":"LARGE","MEAN_MOTION_DDOT":"0.0000000000000","PERIAPSIS":"546.373","EPHEMERIS_TYPE":"0","EPOCH":"2021-11-12T21:15:21.143232","ECCENTRICITY":"0.00012540","OBJECT_NAME":"STARLINK-2197","BSTAR":"0.00007052500000","LAUNCH_DATE":"2021-03-04","GP_ID":"189646861","PERIOD":"95.593","SITE":"AFETR","APOAPSIS":"548.110","RA_OF_ASC_NODE":"104.6470","REF_FRAME":"TEME","MEAN_ELEMENT_THEORY":"SGP4","MEAN_MOTION_DOT":"0.00000769","COUNTRY_CODE":"US","REV_AT_EPOCH":"3978","TIME_SYSTEM":"UTC","CENTER_NAME":"EARTH","MEAN_MOTION":"15.06390982","TLE_LINE2":"2 47774  53.0551 104.6470 0001254  82.1818 277.9313 15.06390982 39784","DECAY_DATE":null,"CLASSIFICATION_TYPE":"U","NORAD_CAT_ID":"47774","MEAN_ANOMALY":"277.9313","FILE":"3213639","OBJECT_ID":"2021-017BE","ARG_OF_PERICENTER":"82.1818","TLE_LINE1":"1 47774U 21017BE  21316.88566138  .00000769  00000-0  70525-4 0  9993"},{"ELEMENT_SET_NO":"999","OBJECT_TYPE":"PAYLOAD","SEMIMAJOR_AXIS":"6925.373","INCLINATION":"53.0557","MEAN_MOTION_DDOT":"0.0000000000000","RCS_SIZE":"LARGE","PERIAPSIS":"546.216","EPOCH":"2021-11-12T19:55:43.078944","EPHEMERIS_TYPE":"0","ECCENTRICITY":"0.00014750","OBJECT_NAME":"STARLINK-2198","BSTAR":"0.00000009708100","PERIOD":"95.593","GP_ID":"189621705","LAUNCH_DATE":"2021-03-04","SITE":"AFETR","APOAPSIS":"548.259","RA_OF_ASC_NODE":"104.9158","REF_FRAME":"TEME","MEAN_ELEMENT_THEORY":"SGP4","COUNTRY_CODE":"US","MEAN_MOTION_DOT":"-0.00000280","REV_AT_EPOCH":"3914","TIME_SYSTEM":"UTC","TLE_LINE2":"2 47775  53.0557 104.9158 0001475  91.7093 268.4065 15.06392089 39142","MEAN_MOTION":"15.06392089","CENTER_NAME":"EARTH","DECAY_DATE":null,"CLASSIFICATION_TYPE":"U","MEAN_ANOMALY":"268.4065","NORAD_CAT_ID":"47775","FILE":"3213528","TLE_LINE1":"1 47775U 21017BF  21316.83035971 -.00000280  00000-0  97081-7 0  9993","ARG_OF_PERICENTER":"91.7093","OBJECT_ID":"2021-017BF"},{"ECCENTRICITY":"0.00013690","EPHEMERIS_TYPE":"0","EPOCH":"2021-11-12T20:34:12.169920","PERIAPSIS":"546.286","RCS_SIZE":"LARGE","MEAN_MOTION_DDOT":"0.0000000000000","INCLINATION":"53.0563","SEMIMAJOR_AXIS":"6925.369","ELEMENT_SET_NO":"999","OBJECT_TYPE":"PAYLOAD","SITE":"AFETR","GP_ID":"189645376","LAUNCH_DATE":"2021-03-04","PERIOD":"95.593","BSTAR":"-0.00002322500000","OBJECT_NAME":"STARLINK-2209","CENTER_NAME":"EARTH","MEAN_MOTION":"15.06393303","TLE_LINE2":"2 47776  53.0563  94.7887 0001369  89.2305 270.8841 15.06393303 39931","TIME_SYSTEM":"UTC","REV_AT_EPOCH":"3993","MEAN_MOTION_DOT":"-0.00000627","COUNTRY_CODE":"US","MEAN_ELEMENT_THEORY":"SGP4","REF_FRAME":"TEME","RA_OF_ASC_NODE":"94.7887","APOAPSIS":"548.182","OBJECT_ID":"2021-017BG","ARG_OF_PERICENTER":"89.2305","TLE_LINE1":"1 47776U 21017BG  21316.85708530 -.00000627  00000-0 -23225-4 0  9996","FILE":"3213639","MEAN_ANOMALY":"270.8841","NORAD_CAT_ID":"47776","CLASSIFICATION_TYPE":"U","DECAY_DATE":null},{"PERIAPSIS":"546.546","MEAN_MOTION_DDOT":"0.0000000000000","RCS_SIZE":"LARGE","ECCENTRICITY":"0.00010030","EPOCH":"2021-11-12T20:39:30.602304","EPHEMERIS_TYPE":"0","ELEMENT_SET_NO":"999","OBJECT_TYPE":"PAYLOAD","SEMIMAJOR_AXIS":"6925.376","INCLINATION":"53.0565","BSTAR":"0.00006574200000","SITE":"AFETR","LAUNCH_DATE":"2021-03-04","GP_ID":"189646116","PERIOD":"95.593","OBJECT_NAME":"STARLINK-2210","REV_AT_EPOCH":"3993","COUNTRY_CODE":"US","MEAN_MOTION_DOT":"0.00000698","MEAN_MOTION":"15.06391173","TLE_LINE2":"2 47777  53.0565  94.7779 0001003  90.4521 269.6583 15.06391173 39935","CENTER_NAME":"EARTH","TIME_SYSTEM":"UTC","REF_FRAME":"TEME","RA_OF_ASC_NODE":"94.7779","APOAPSIS":"547.935","MEAN_ELEMENT_THEORY":"SGP4","FILE":"3213639","MEAN_ANOMALY":"269.6583","NORAD_CAT_ID":"47777","TLE_LINE1":"1 47777U 21017BH  21316.86077086  .00000698  00000-0  65742-4 0  9999","OBJECT_ID":"2021-017BH","ARG_OF_PERICENTER":"90.4521","CLASSIFICATION_TYPE":"U","DECAY_DATE":null}];
